{"type": "FeatureCollection", "features": [ {"type": "Feature", "properties": {"norad_id": 37216, "name": "COSMO-SKYMED 4", "group": "resource", "lat": -0.27600769200400344, "lon": -11.772364143447387, "alt_km": 625.802449187905, "timestamp": "2025-12-12T22:42:12.206828+00:00", "meta": {"OBJECT_NAME": "COSMO-SKYMED 4", "OBJECT_ID": "2010-060A", "EPOCH": "2025-12-12T07:18:39.935232", "MEAN_MOTION": 14.82166989, "ECCENTRICITY": 0.00013827, "INCLINATION": 97.8809, "RA_OF_ASC_NODE": 167.6344, "ARG_OF_PERICENTER": 77.1687, "MEAN_ANOMALY": 282.9681, "EPHEMERIS_TYPE": 0, "CLASSIFICATION_TYPE": "U", "NORAD_CAT_ID": 37216, "ELEMENT_SET_NO": 999, "REV_AT_EPOCH": 81688, "BSTAR": 7.7063558e-05, "MEAN_MOTION_DOT": 5.62e-06, "MEAN_MOTION_DDOT": 0}, "tle": {"line1": "1 37216U 10060A   25346.30462888  .00000562  00000+0  77064-4 0  9995", "line2": "2 37216  97.8809 167.6344 0001382  77.1687 282.9681 14.82166989816884"}}, "geometry": {"type": "Point", "coordinates": [-11.772364143447387, -0.27600769200400344]}}, {"type": "Feature", "properties": {"norad_id": 37387, "name": "RESOURCESAT-2", "group": "resource", "lat": 76.50700843021303, "lon": -89.36207545724571, "alt_km": 810.2599656126395, "timestamp": "2025-12-12T22:42:12.206838+00:00", "meta": {"OBJECT_NAME": "RESOURCESAT-2", "OBJECT_ID": "2011-015A", "EPOCH": "2025-12-12T07:01:52.756608", "MEAN_MOTION": 14.21597005, "ECCENTRICITY": 0.00064616, "INCLINATION": 98.7878, "RA_OF_ASC_NODE": 49.8468, "ARG_OF_PERICENTER": 43.8405, "MEAN_ANOMALY": 316.3284, "EPHEMERIS_TYPE": 0, "CLASSIFICATION_TYPE": "U", "NORAD_CAT_ID": 37387, "ELEMENT_SET_NO": 999, "REV_AT_EPOCH": 75962, "BSTAR": 0.00013126035, "MEAN_MOTION_DOT": 2.43e-06, "MEAN_MOTION_DDOT": 0}, "tle": {"line1": "1 37387U 11015A   25346.29297172  .00000243  00000+0  13126-3 0  9999", "line2": "2 37387  98.7878  49.8468 0006461  43.8405 316.3284 14.21597005759627"}}, "geometry": {"type": "Point", "coordinates": [-89.36207545724571, 76.50700843021303]}}, {"type": "Feature", "properties": {"norad_id": 37781, "name": "HAIYANG-2A", "group": "resource", "lat": 62.093466288421816, "lon": -174.02276653982233, "alt_km": 960.9197263870255, "timestamp": "2025-12-12T22:42:12.206848+00:00", "meta": {"OBJECT_NAME": "HAIYANG-2A", "OBJECT_ID": "2011-043A", "EPOCH": "2025-12-12T06:28:02.720352", "MEAN_MOTION": 13.78834946, "ECCENTRICITY": 0.00016544, "INCLINATION": 99.3382, "RA_OF_ASC_NODE": 347.211, "ARG_OF_PERICENTER": 82.8221, "MEAN_ANOMALY": 277.3118, "EPHEMERIS_TYPE": 0, "CLASSIFICATION_TYPE": "U", "NORAD_CAT_ID": 37781, "ELEMENT_SET_NO": 999, "REV_AT_EPOCH": 72092, "BSTAR": -3.9607621e-05, "MEAN_MOTION_DOT": -8.4e-07, "MEAN_MOTION_DDOT": 0}, "tle": {"line1": "1 37781U 11043A   25346.26947593 -.00000084  00000+0 -39608-4 0  9993", "line2": "2 37781  99.3382 347.2110 0001654  82.8221 277.3118 13.78834946720921"}}, "geometry": {"type": "Point", "coordinates": [-174.02276653982233, 62.093466288421816]}}, {"type": "Feature", "properties": {"norad_id": 37791, "name": "RASAT", "group": "resource", "lat": -60.20406899946651, "lon": 90.53632730327818, "alt_km": 683.8112566281761, "timestamp": "2025-12-12T22:42:12.206858+00:00", "meta": {"OBJECT_NAME": "RASAT", "OBJECT_ID": "2011-044D", "EPOCH": "2025-12-12T06:58:02.796096", "MEAN_MOTION": 14.67908815, "ECCENTRICITY": 0.00219093, "INCLINATION": 98.0646, "RA_OF_ASC_NODE": 75.5543, "ARG_OF_PERICENTER": 66.3064, "MEAN_ANOMALY": 9.977, "EPHEMERIS_TYPE": 0, "CLASSIFICATION_TYPE": "U", "NORAD_CAT_ID": 37791, "ELEMENT_SET_NO": 999, "REV_AT_EPOCH": 76576, "BSTAR": 0.00019253464, "MEAN_MOTION_DOT": 1.056e-05, "MEAN_MOTION_DDOT": 0}, "tle": {"line1": "1 37791U 11044D   25346.29031014  .00001056  00000+0  19253-3 0  9991", "line2": "2 37791  98.0646  75.5543 0021909  66.3064   9.9770 14.67908815765769"}}, "geometry": {"type": "Point", "coordinates": [90.53632730327818, -60.20406899946651]}}, {"type": "Feature", "properties": {"norad_id": 37841, "name": "SRMSAT", "group": "resource", "lat": 13.915908932557501, "lon": 149.72845983340957, "alt_km": 849.7723641030061, "timestamp": "2025-12-12T22:42:12.206869+00:00", "meta": {"OBJECT_NAME": "SRMSAT", "OBJECT_ID": "2011-058D", "EPOCH": "2025-12-11T16:31:02.191584", "MEAN_MOTION": 14.1151099, "ECCENTRICITY": 0.00117304, "INCLINATION": 19.9707, "RA_OF_ASC_NODE": 114.3146, "ARG_OF_PERICENTER": 301.8177, "MEAN_ANOMALY": 177.8356, "EPHEMERIS_TYPE": 0, "CLASSIFICATION_TYPE": "U", "NORAD_CAT_ID": 37841, "ELEMENT_SET_NO": 999, "REV_AT_EPOCH": 73129, "BSTAR": 0.0001411213, "MEAN_MOTION_DOT": 5.25e-06, "MEAN_MOTION_DDOT": 0}, "tle": {"line1": "1 37841U 11058D   25345.68821981  .00000525  00000+0  14112-3 0  9993", "line2": "2 37841  19.9707 114.3146 0011730 301.8177 177.8356 14.11510990731297"}}, "geometry": {"type": "Point", "coordinates": [149.72845983340957, 13.915908932557501]}}, {"type": "Feature", "properties": {"norad_id": 38012, "name": "PLEIADES 1A", "group": "resource", "lat": 81.36825078873038, "lon": -11.690354740680661, "alt_km": 689.4674065599374, "timestamp": "2025-12-12T22:42:12.206879+00:00", "meta": {"OBJECT_NAME": "PLEIADES 1A", "OBJECT_ID": "2011-076F", "EPOCH": "2025-12-12T07:47:01.529664", "MEAN_MOTION": 14.58561322, "ECCENTRICITY": 0.00013225, "INCLINATION": 98.1819, "RA_OF_ASC_NODE": 59.0988, "ARG_OF_PERICENTER": 73.7685, "MEAN_ANOMALY": 351.2428, "EPHEMERIS_TYPE": 0, "CLASSIFICATION_TYPE": "U", "NORAD_CAT_ID": 38012, "ELEMENT_SET_NO": 999, "REV_AT_EPOCH": 74475, "BSTAR": 0.00018044179, "MEAN_MOTION_DOT": 7.93e-06, "MEAN_MOTION_DDOT": 0}, "tle": {"line1": "1 38012U 11076F   25346.32432326  .00000793  00000+0  18044-3 0  9992", "line2": "2 38012  98.1819  59.0988 0001322  73.7685 351.2428 14.58561322744754"}}, "geometry": {"type": "Point", "coordinates": [-11.690354740680661, 81.36825078873038]}}, {"type": "Feature", "properties": {"norad_id": 38038, "name": "ZIYUAN 1-02C (ZY 1-02C)", "group": "resource", "lat": -20.099772271242728, "lon": 56.06717491804969, "alt_km": 774.9658985459273, "timestamp": "2025-12-12T22:42:12.206889+00:00", "meta": {"OBJECT_NAME": "ZIYUAN 1-02C (ZY 1-02C)", "OBJECT_ID": "2011-079A", "EPOCH": "2025-12-12T08:06:11.083392", "MEAN_MOTION": 14.38011648, "ECCENTRICITY": 0.00071551, "INCLINATION": 98.4328, "RA_OF_ASC_NODE": 52.3582, "ARG_OF_PERICENTER": 139.5691, "MEAN_ANOMALY": 292.7526, "EPHEMERIS_TYPE": 0, "CLASSIFICATION_TYPE": "U", "NORAD_CAT_ID": 38038, "ELEMENT_SET_NO": 999, "REV_AT_EPOCH": 73235, "BSTAR": 0.0002955392, "MEAN_MOTION_DOT": 8.51e-06, "MEAN_MOTION_DDOT": 0}, "tle": {"line1": "1 38038U 11079A   25346.33762828  .00000851  00000+0  29554-3 0  9990", "line2": "2 38038  98.4328  52.3582 0007155 139.5691 292.7526 14.38011648732354"}}, "geometry": {"type": "Point", "coordinates": [56.06717491804969, -20.099772271242728]}}, {"type": "Feature", "properties": {"norad_id": 38046, "name": "ZIYUAN 3-1 (ZY 3-1)", "group": "resource", "lat": -51.45032317390503, "lon": -135.72833726703766, "alt_km": 370.48218334322246, "timestamp": "2025-12-12T22:42:12.206899+00:00", "meta": {"OBJECT_NAME": "ZIYUAN 3-1 (ZY 3-1)", "OBJECT_ID": "2012-001A", "EPOCH": "2025-12-12T07:56:15.003744", "MEAN_MOTION": 15.68492907, "ECCENTRICITY": 0.00017515, "INCLINATION": 97.1752, "RA_OF_ASC_NODE": 52.7385, "ARG_OF_PERICENTER": 354.5136, "MEAN_ANOMALY": 5.6106, "EPHEMERIS_TYPE": 0, "CLASSIFICATION_TYPE": "U", "NORAD_CAT_ID": 38046, "ELEMENT_SET_NO": 999, "REV_AT_EPOCH": 77490, "BSTAR": 0.00084545122, "MEAN_MOTION_DOT": 0.00096182, "MEAN_MOTION_DDOT": 0}, "tle": {"line1": "1 38046U 12001A   25346.33072921  .00096182  00000+0  84545-3 0  9996", "line2": "2 38046  97.1752  52.7385 0001751 354.5136   5.6106 15.68492907774901"}}, "geometry": {"type": "Point", "coordinates": [-135.72833726703766, -51.45032317390503]}}, {"type": "Feature", "properties": {"norad_id": 38338, "name": "ARIRANG-3 (KOMPSAT-3)", "group": "resource", "lat": -12.960776368322286, "lon": -56.53026621491514, "alt_km": 688.3867202785832, "timestamp": "2025-12-12T22:42:12.206910+00:00", "meta": {"OBJECT_NAME": "ARIRANG-3 (KOMPSAT-3)", "OBJECT_ID": "2012-025B", "EPOCH": "2025-12-12T07:58:37.885152", "MEAN_MOTION": 14.61712021, "ECCENTRICITY": 0.00053911, "INCLINATION": 98.3321, "RA_OF_ASC_NODE": 300.9187, "ARG_OF_PERICENTER": 340.1729, "MEAN_ANOMALY": 19.9262, "EPHEMERIS_TYPE": 0, "CLASSIFICATION_TYPE": "U", "NORAD_CAT_ID": 38338, "ELEMENT_SET_NO": 999, "REV_AT_EPOCH": 72404, "BSTAR": 0.00020586189, "MEAN_MOTION_DOT": 9.77e-06, "MEAN_MOTION_DDOT": 0}, "tle": {"line1": "1 38338U 12025B   25346.33238293  .00000977  00000+0  20586-3 0  9994", "line2": "2 38338  98.3321 300.9187 0005391 340.1729  19.9262 14.61712021724046"}}, "geometry": {"type": "Point", "coordinates": [-56.53026621491514, -12.960776368322286]}}, {"type": "Feature", "properties": {"norad_id": 38709, "name": "EXACTVIEW-1 (ADS-1B)", "group": "resource", "lat": -41.991481450990584, "lon": 103.50769940108036, "alt_km": 809.1427436360309, "timestamp": "2025-12-12T22:42:12.206920+00:00", "meta": {"OBJECT_NAME": "EXACTVIEW-1 (ADS-1B)", "OBJECT_ID": "2012-039C", "EPOCH": "2025-12-12T06:03:00.161280", "MEAN_MOTION": 14.24907876, "ECCENTRICITY": 0.00106983, "INCLINATION": 98.9635, "RA_OF_ASC_NODE": 94.6318, "ARG_OF_PERICENTER": 355.656, "MEAN_ANOMALY": 4.4524, "EPHEMERIS_TYPE": 0, "CLASSIFICATION_TYPE": "U", "NORAD_CAT_ID": 38709, "ELEMENT_SET_NO": 999, "REV_AT_EPOCH": 69608, "BSTAR": 0.00013783643, "MEAN_MOTION_DOT": 2.76e-06, "MEAN_MOTION_DDOT": 0}, "tle": {"line1": "1 38709U 12039C   25346.25208520  .00000276  00000+0  13784-3 0  9996", "line2": "2 38709  98.9635  94.6318 0010698 355.6560   4.4524 14.24907876696080"}}, "geometry": {"type": "Point", "coordinates": [103.50769940108036, -41.991481450990584]}}]}